satname,norad_id,inclination_deg,eccentricity,mean_motion_rev_per_day,perigee_km,apogee_km,l1,l2
STARLINK-1351,45697,53.043,0.0001425,15.67229986,365.87179981627196,367.79411625431203,1 45697U 20035AS  26166.57010799  .00042323  00000+0  38992-3 0  9997,2 45697  53.0430 264.3449 0001425 164.4509 195.6551 15.67229986334659
STARLINK-1400,45700,53.0421,0.0002336,15.65926261,368.999660107449,372.1526588955685,1 45700U 20035AV  26166.97368331  .00037216  00000+0  36216-3 0  9996,2 45700  53.0421 265.0000 0002336  41.7844 318.3349 15.65926261334675
STARLINK-1403,45701,53.1564,0.0001732,15.3473518,460.52253491051306,462.89185693998206,1 45701U 20035AW  26166.64426509  .00047531  00000+0  13941-2 0  9993,2 45701  53.1564 300.8660 0001732 279.6451  80.4356 15.34735180334152
STARLINK-1407,45703,53.026,0.0007107,15.75465429,338.53014488812914,348.08400549660655,1 45703U 20035AY  26166.78792133  .00067619  00000+0  43679-3 0  9990,2 45703  53.0260 191.9197 0007107  48.1506 312.0118 15.75465429335682
STARLINK-1411,45706,53.0237,0.0011274,16.01265551,263.41689439818674,278.4091724135096,1 45706U 20035BB  26166.60753966  .00571503  15786-3  10099-2 0  9997,2 45706  53.0237 212.8372 0011274   6.7221 353.3958 16.01265551335360
STARLINK-1423,45710,53.0433,0.0004526,15.70113446,355.5234549030665,361.62152433306983,1 45710U 20035BF  26166.56574125  .00051313  00000+0  41851-3 0  9997,2 45710  53.0433 263.2181 0004526  99.0803 261.0725 15.70113446334652
STARLINK-1433,45711,53.0425,0.0004025,15.69636577,357.22479239960467,362.6489418626461,1 45711U 20035BG  26166.74455999  .00050353  00000+0  41905-3 0  9998,2 45711  53.0425 260.9619 0004025 108.1366 252.0089 15.69636577334706
STARLINK-1434,45712,53.0491,0.0001721,15.35173793,459.22741746229076,461.5812433882229,1 45712U 20035BH  26166.55225425  .00045857  00000+0  13269-2 0  9991,2 45712  53.0491 283.7507 0001721  37.8927 322.2195 15.35173793334381
STARLINK-1465,45731,53.0443,0.0002592,15.69033693,359.91582120327894,363.4097334078342,1 45731U 20038B   26166.56839895  .00052627  00000+0  44873-3 0  9997,2 45731  53.0443 107.4416 0002592  91.6202 268.5111 15.69033693331648
STARLINK-1471,45735,53.0456,0.0002349,15.53962352,403.5772233941352,406.76402131511713,1 45735U 20038F   26166.88292109  .00023217  00000+0  35950-3 0  9996,2 45735  53.0456  29.7429 0002349 143.3667 216.7504 15.53962352332778
STARLINK-1480,45741,53.0481,0.0006159,15.66070891,366.0043711776343,374.31692422006836,1 45741U 20038M   26166.12194687  .00049768  00000+0  47864-3 0  9998,2 45741  53.0481 103.5200 0006159  58.4273 301.7342 15.66070891331678
STARLINK-1500,45744,53.0361,0.0001734,15.3962055,446.0470079415054,448.4140453997543,1 45744U 20038Q   26166.97648037  .00021562  00000+0  54746-3 0  9996,2 45744  53.0361  89.9382 0001734 136.9772 223.1367 15.39620550331932
STARLINK-1504,45746,53.0203,0.0002737,15.59639304,386.84810219988776,390.5522688752508,1 45746U 20038S   26166.86779904  .00030382  00000+0  37904-3 0  9991,2 45746  53.0203  26.1954 0002737 127.9443 232.1817 15.59639304332802
STARLINK-1506,45747,53.0748,0.0001814,15.28604278,478.73968887791943,481.2278150867378,1 45747U 20038T   26166.54600015  .00034952  00000+0  12461-2 0  9990,2 45747  53.0748 108.8459 0001814 173.0676 187.0348 15.28604278331646
STARLINK-1464,45751,53.0472,0.0004739,15.54581577,400.15545040285633,406.5829619850874,1 45751U 20038X   26166.52112751  .00023675  00000+0  35820-3 0  9993,2 45751  53.0472  95.2689 0004739  63.5188 296.6308 15.54581577331827
STARLINK-1477,45754,53.0448,0.0001683,15.19266828,506.8962155157078,509.21410779732014,1 45754U 20038AA  26166.14839958  .00020210  00000+0  95894-3 0  9998,2 45754  53.0448 128.2844 0001683  25.0208 335.0868 15.19266828331328
STARLINK-1478,45755,53.0457,0.0004329,15.6938726,357.73324593598954,363.56768812494465,1 45755U 20038AB  26166.97723898  .00053119  00000+0  44620-3 0  9990,2 45755  53.0457  76.9500 0004329 105.7768 254.3726 15.69387260332106
STARLINK-1493,45759,53.0463,0.0006542,15.65886083,366.2765157481781,375.106683087658,1 45759U 20038AF  26166.95430809  .00043479  00000+0  42222-3 0  9993,2 45759  53.0463  86.9582 0006542  56.8202 303.3440 15.65886083331960
STARLINK-1502,45764,53.0442,0.0004848,15.63180884,375.1999776865214,381.7511892474504,1 45764U 20038AL  26166.51025006  .00093008  00000+0  99287-3 0  9996,2 45764  53.0442  93.1130 0004848  29.4428 330.6858 15.63180884331853
STARLINK-1470,45772,53.0431,0.0003776,15.35974772,455.44534998680865,460.60802080201756,1 45772U 20038AU  26166.98064768  .00042663  00000+0  12044-2 0  9990,2 45772  53.0431  75.2197 0003776  65.6573 294.4823 15.35974772332144
STARLINK-1482,45773,53.1578,0.0004619,15.38588959,447.12698155873386,453.43507413285715,1 45773U 20038AV  26166.97715223  .00044056  00000+0  11426-2 0  9990,2 45773  53.1578  91.6129 0004619  58.5279 301.6176 15.38588959331935
STARLINK-1496,45780,53.0461,6.49e-05,15.69657638,359.439297503779,360.3138916683556,1 45780U 20038BC  26166.89692191  .00053334  00000+0  44316-3 0  9991,2 45780  53.0461  61.3577 0000649 208.2316 151.8665 15.69657638332315
STARLINK-1513,45786,53.16,0.0001217,15.31707825,469.8831639155642,471.55017489869806,1 45786U 20038BJ  26166.53683477  .00001043  00000+0  45375-4 0  9992,2 45786  53.1600  96.0042 0001217  92.0690 268.0451 15.31707825331838
STARLINK-1522,46027,53.064,0.0002738,15.1349452,523.6626263914759,527.4430869569906,1 46027U 20055A   26166.95128132  .00021056  00000+0  11759-2 0  9991,2 46027  53.0640  42.0896 0002738  73.2448 286.8844 15.13494520323749
STARLINK-1523,46028,53.1626,4.48e-05,15.30921318,472.75525584546085,473.36912329284496,1 46028U 20055B   26166.88283490  .00040985  00000+0  13577-2 0  9995,2 46028  53.1626  30.5736 0000448 123.4984 236.6060 15.30921318323932
STARLINK-1526,46029,53.1601,0.0001053,15.30415541,473.84998816503503,475.293168591641,1 46029U 20055C   26166.94521882  .00075586  00000+0  25215-2 0  9990,2 46029  53.1601  30.3282 0001053  90.9732 269.1390 15.30415541323935
STARLINK-1555,46032,53.1618,0.0002033,15.30184535,473.867949647326,476.65454137394954,1 46032U 20055F   26166.92950960 -.00000649  00000+0 -97778-5 0  9991,2 46032  53.1618  30.3830 0002033 103.0033 257.1195 15.30184535323931
STARLINK-1556,46033,53.1572,4.39e-05,15.30396128,474.3286926538658,474.9303655551221,1 46033U 20055G   26166.91259160  .00085938  00000+0  28629-2 0  9993,2 46033  53.1572  30.4770 0000439 132.6293 227.4745 15.30396128323900
STARLINK-1557,46034,53.1583,0.0001115,15.30190494,474.4793008483084,476.0076046892773,1 46034U 20055H   26166.91580973 -.00002490  00000+0 -72004-4 0  9995,2 46034  53.1583  30.4605 0001115  96.9068 263.2060 15.30190494323900
STARLINK-1558,46035,53.1584,0.0001222,15.30185483,474.42092998759836,476.09589982700254,1 46035U 20055J   26166.85788077  .00002124  00000+0  83867-4 0  9995,2 46035  53.1584  30.7290 0001222 105.7605 254.3531 15.30185483323928
STARLINK-1560,46036,53.1604,0.000115,15.30190927,474.454021292373,476.03029849914947,1 46036U 20055K   26166.90950416  .00001575  00000+0  65322-4 0  9995,2 46036  53.1604  30.4983 0001150  99.2872 260.8259 15.30190927323930
STARLINK-1569,46039,53.1604,0.0001123,15.30203708,474.4343678279747,475.97362821613115,1 46039U 20055N   26166.86102980  .00006135  00000+0  21905-3 0  9993,2 46039  53.1604  30.7062 0001123  94.7704 265.3425 15.30203708323913
STARLINK-1582,46043,53.1595,0.0001211,15.31690202,469.9398001683494,471.59860525064596,1 46043U 20055S   26166.93561977  .00003492  00000+0  12429-3 0  9995,2 46043  53.1595  29.6767 0001211  94.6577 265.4562 15.31690202323936
STARLINK-1591,46045,53.162,0.0001036,15.30210841,474.4726964175761,475.8927042594869,1 46045U 20055U   26166.89367417  .00004578  00000+0  16654-3 0  9995,2 46045  53.1620  30.5601 0001036  86.0468 274.0651 15.30210841323902
STARLINK-1524,46047,53.1616,9.56e-05,15.31689475,470.11661424246904,471.42612552279024,1 46047U 20055W   26166.90494403  .00000170  00000+0  17255-4 0  9998,2 46047  53.1616  17.1225 0000956  94.8974 265.2137 15.31689475324110
STARLINK-1527,46048,53.1601,9.41e-05,15.31700428,470.0942401750226,471.38319858541036,1 46048U 20055X   26166.90028483 -.00001063  00000+0 -22487-4 0  9997,2 46048  53.1601  17.1240 0000941  91.3533 268.7576 15.31700428324082
STARLINK-1540,46051,53.1579,0.00013,15.31699315,469.85168290093134,471.6323914505974,1 46051U 20055AA  26166.88632368  .00001049  00000+0  45558-4 0  9997,2 46051  53.1579  17.4000 0001300 132.9711 227.1399 15.31699315324126
STARLINK-1541,46052,53.1565,0.0005948,15.87395068,305.6114289452198,313.56714813806866,1 46052U 20055AB  26166.91668981  .00216367  00000+0  78576-3 0  9998,2 46052  53.1565 357.9228 0005948 279.2102 259.6681 15.87395068  6060
STARLINK-1543,46053,53.1605,0.000156,15.31693939,469.6896351810383,471.826490440636,1 46053U 20055AC  26166.85832976 -.00003817  00000+0 -11132-3 0  9990,2 46053  53.1605  17.3332 0001560  83.7895 276.3284 15.31693939324113
STARLINK-1548,46054,53.1599,0.0001115,15.31696568,469.98657493248083,471.513876783848,1 46054U 20055AD  26166.87232851  .00001561  00000+0  62070-4 0  9999,2 46054  53.1599  17.3415 0001115  83.5505 276.5623 15.31696568324110
STARLINK-1554,46055,53.1607,0.0001306,15.31699808,469.8461041573919,471.63503097804096,1 46055U 20055AE  26166.85367688  .00004121  00000+0  14448-3 0  9995,2 46055  53.1607  17.3741 0001306  80.9411 279.1739 15.31699808324119
STARLINK-1564,46058,53.1629,0.0001397,15.30175819,474.3298471068838,476.24469384805525,1 46058U 20055AH  26166.85107287  .00000585  00000+0  31894-4 0  9990,2 46058  53.1629  18.4194 0001397  90.9428 269.1733 15.30175819324099
STARLINK-1570,46059,53.1601,8.48e-05,15.31702054,470.1530881153958,471.3146566153482,1 46059U 20055AJ  26166.88162738  .00002226  00000+0  83470-4 0  9997,2 46059  53.1601  17.1254 0000848  97.9408 262.1690 15.31702054324079
